[
    {
        "Altitude(m)": 610399.5640159615,
        "Argument of Periapsis(deg)": 0.0,
        "Eccentricity": 0.0,
        "Inclination(deg)": 60.0,
        "Latitude(deg)": 52.11143199189659,
        "Longitude(deg)": 47.58419017767884,
        "Mean Anomaly(deg)": 65.4545,
        "RAAN(deg)": 100.0,
        "Satellite Name": "Test1 444",
        "Satellite Number": 444,
        "Semi-Major Axis(m)": 6980739.136638005,
        "Time(s)": 0
    },
    {
        "Altitude(m)": 610481.7154306836,
        "Argument of Periapsis(deg)": 0.00010418945913296404,
        "Eccentricity": 0.0,
        "Inclination(deg)": 60.0,
        "Latitude(deg)": 52.471035463376865,
        "Longitude(deg)": 48.36632661542925,
        "Mean Anomaly(deg)": 66.07460614546181,
        "RAAN(deg)": 99.99957995086025,
        "Satellite Name": "Test1 444",
        "Satellite Number": 444,
        "Semi-Major Axis(m)": 6980739.136638005,
        "Time(s)": 10
    }
]